[{"OBJECT_NAME":"STARLINK-34389","OBJECT_ID":"2025-126H","EPOCH":"2026-03-09T07:09:09.980352","MEAN_MOTION":14.98333821,"ECCENTRICITY":0.00026918,"INCLINATION":70.0032,"RA_OF_ASC_NODE":35.4241,"ARG_OF_PERICENTER":269.3836,"MEAN_ANOMALY":90.7015,"EPHEMERIS_TYPE":0,"CLASSIFICATION_TYPE":"U","NORAD_CAT_ID":64351,"ELEMENT_SET_NO":999,"REV_AT_EPOCH":4062,"BSTAR":0.00041670904,"MEAN_MOTION_DOT":4.883e-5,"MEAN_MOTION_DDOT":0},{"OBJECT_NAME":"COSMOS 2251 DEB","OBJECT_ID":"1993-036LH","EPOCH":"2026-03-09T22:01:19.578144","MEAN_MOTION":14.80785224,"ECCENTRICITY":0.00862249,"INCLINATION":74.0187,"RA_OF_ASC_NODE":230.5997,"ARG_OF_PERICENTER":329.6727,"MEAN_ANOMALY":156.0627,"EPHEMERIS_TYPE":0,"CLASSIFICATION_TYPE":"U","NORAD_CAT_ID":34136,"ELEMENT_SET_NO":999,"REV_AT_EPOCH":91300,"BSTAR":0.00043945141,"MEAN_MOTION_DOT":3.573e-5,"MEAN_MOTION_DDOT":0}]
